[{"OBJECT_NAME":"CONTINUUM-1","OBJECT_ID":"2023-001AN","EPOCH":"2026-03-09T23:17:35.458656","MEAN_MOTION":15.27981258,"ECCENTRICITY":0.00109493,"INCLINATION":97.3456,"RA_OF_ASC_NODE":133.3964,"ARG_OF_PERICENTER":60.1976,"MEAN_ANOMALY":300.0351,"EPHEMERIS_TYPE":0,"CLASSIFICATION_TYPE":"U","NORAD_CAT_ID":55045,"ELEMENT_SET_NO":999,"REV_AT_EPOCH":17709,"BSTAR":0.00052859897,"MEAN_MOTION_DOT":0.00014395,"MEAN_MOTION_DDOT":0},{"OBJECT_NAME":"STARLINK-32495","OBJECT_ID":"2024-216W","EPOCH":"2026-03-09T22:08:54.350592","MEAN_MOTION":15.27581189,"ECCENTRICITY":0.00010209,"INCLINATION":43.0006,"RA_OF_ASC_NODE":261.7227,"ARG_OF_PERICENTER":244.8509,"MEAN_ANOMALY":115.2237,"EPHEMERIS_TYPE":0,"CLASSIFICATION_TYPE":"U","NORAD_CAT_ID":62052,"ELEMENT_SET_NO":999,"REV_AT_EPOCH":7383,"BSTAR":0.00088515016,"MEAN_MOTION_DOT":0.00024176,"MEAN_MOTION_DDOT":0}]
